OBJECT_NAME,OBJECT_ID,EPOCH,MEAN_MOTION,ECCENTRICITY,INCLINATION,RA_OF_ASC_NODE,ARG_OF_PERICENTER,MEAN_ANOMALY,EPHEMERIS_TYPE,CLASSIFICATION_TYPE,NORAD_CAT_ID,ELEMENT_SET_NO,REV_AT_EPOCH,BSTAR,MEAN_MOTION_DOT,MEAN_MOTION_DDOT
TERRA,1999-068A,2017-01-01T06:27:44.215200,14.57118706,.0000854,98.2044,78.6931,116.7389,243.3879,0,U,25994,999,90636,.29716E-4,.89E-6,0
TERRA,1999-068A,2017-01-01T17:59:55.386240,14.57118598,.0000823,98.2041,79.1665,113.6189,246.5083,0,U,25994,999,90643,.22898E-4,.58E-6,0
TERRA,1999-068A,2017-01-02T03:53:13.546176,14.57119173,.0000801,98.2036,79.5721,112.6441,247.4872,0,U,25994,999,90649,.44674E-4,.156E-5,0
TERRA,1999-068A,2017-01-02T07:10:59.534688,14.57119138,.0000778,98.2035,79.7069,109.7954,250.3320,0,U,25994,999,90651,.4197E-4,.144E-5,0
TERRA,1999-068A,2017-01-02T18:43:10.672896,14.57119427,.0000794,98.2035,80.1801,109.8652,250.2632,0,U,25994,999,90658,.48647E-4,.174E-5,0
TERRA,1999-068A,2017-01-03T02:57:35.816544,14.57118758,.0000795,98.2039,80.5184,114.2349,245.8942,0,U,25994,999,90663,.15686E-4,.25E-6,0
TERRA,1999-068A,2017-01-03T07:54:14.861088,14.57119239,.0000758,98.2037,80.7209,112.7848,247.3447,0,U,25994,999,90666,.34468E-4,.11E-5,0
TERRA,1999-068A,2017-01-03T17:47:32.937216,14.57119375,.0000776,98.2039,81.1268,113.4051,246.7233,0,U,25994,999,90672,.3278E-4,.103E-5,0
TERRA,1999-068A,2017-01-04T03:40:51.051360,14.57119274,.0000801,98.2040,81.5325,115.7319,244.3970,0,U,25994,999,90678,.20419E-4,.47E-6,0
TERRA,1999-068A,2017-01-04T06:58:37.073568,14.57119082,.0000815,98.2040,81.6676,115.3892,244.7379,0,U,25994,999,90680,.12868E-4,.13E-6,0
TERRA,1999-068A,2017-01-04T18:30:48.220416,14.57119774,.0000753,98.2030,82.1402,96.2124,263.9157,0,U,25994,999,90687,.45213E-4,.159E-5,0
TERRA,1999-068A,2017-01-05T04:24:06.326784,14.57120439,.0000722,98.2030,82.5460,100.3061,259.8250,0,U,25994,999,90693,.67024E-4,.257E-5,0
TERRA,1999-068A,2017-01-05T09:20:45.354912,14.57120218,.0000745,98.2029,82.7491,94.8689,265.2597,0,U,25994,999,90696,.54034E-4,.198E-5,0
TERRA,1999-068A,2017-01-05T19:14:03.432768,14.57120178,.0000705,98.2031,83.1549,89.6916,270.4357,0,U,25994,999,90702,.41428E-4,.141E-5,0
TERRA,1999-068A,2017-01-06T05:07:21.502848,14.57120543,.0000728,98.2032,83.5606,86.2151,273.9128,0,U,25994,999,90708,.46021E-4,.162E-5,0
TERRA,1999-068A,2017-01-06T06:46:14.520864,14.57120583,.0000727,98.2030,83.6282,86.8606,273.2672,0,U,25994,999,90709,.49366E-4,.177E-5,0
TERRA,1999-068A,2017-01-06T15:00:39.586752,14.57120832,.0000735,98.2031,83.9664,89.7384,270.3906,0,U,25994,999,90714,.52952E-4,.193E-5,0
TERRA,1999-068A,2017-01-06T19:57:18.608832,14.57120555,.0000722,98.2035,84.1698,82.5297,277.5957,0,U,25994,999,90717,.44121E-4,.154E-5,0
TERRA,1999-068A,2017-01-07T02:32:50.702496,14.57120635,.0000766,98.2034,84.4399,79.6417,280.4859,0,U,25994,999,90721,.44124E-4,.154E-5,0
TERRA,1999-068A,2017-01-07T05:50:36.740256,14.57119777,.000079,98.2025,84.5759,71.9355,288.1897,0,U,25994,999,90723,-.21071E-5,-.55E-6,0
TERRA,1999-068A,2017-01-07T19:01:40.919808,14.57119874,.0000845,98.2026,85.1167,64.3448,295.7826,0,U,25994,999,90731,.84131E-5,-.7E-7,0
TERRA,1999-068A,2017-01-07T20:40:33.954240,14.57120094,.0000858,98.2027,85.1842,66.2592,293.8705,0,U,25994,999,90732,.16816E-4,.31E-6,0
TERRA,1999-068A,2017-01-08T04:54:58.953600,14.57120815,.0000889,98.2028,85.5224,64.8807,295.2477,0,U,25994,999,90737,.4127E-4,.141E-5,0
TERRA,1999-068A,2017-01-08T04:54:59.012352,14.57120852,.0000862,98.2024,85.5224,67.0068,293.1257,0,U,25994,999,90737,.41098E-4,.14E-5,0
TERRA,1999-068A,2017-01-08T16:27:10.042560,14.57120744,.0000835,98.2023,85.9964,71.0777,289.0517,0,U,25994,999,90744,.27471E-4,.79E-6,0
TERRA,1999-068A,2017-01-09T02:20:28.131648,14.57120210,.0000867,98.2037,86.4030,68.6140,291.5128,0,U,25994,999,90750,.10387E-4,.2E-7,0
TERRA,1999-068A,2017-01-09T05:38:14.181504,14.57120189,.0000916,98.2037,86.5385,65.0234,295.1050,0,U,25994,999,90752,.3796E-5,-.28E-6,0
TERRA,1999-068A,2017-01-09T05:38:14.196192,14.57120377,.000089,98.2026,86.5384,61.2944,298.8353,0,U,25994,999,90752,.10295E-4,.1E-7,0
TERRA,1999-068A,2017-01-09T18:49:18.291072,14.57120231,.0000946,98.2032,87.0802,66.9304,293.1986,0,U,25994,999,90760,.67044E-5,-.15E-6,0
TERRA,1999-068A,2017-01-10T03:03:43.383744,14.57120710,.000103,98.2036,87.4185,80.5136,279.6210,0,U,25994,999,90765,.22782E-4,.57E-6,0
TERRA,1999-068A,2017-01-10T04:42:36.326592,14.57120864,.0001041,98.2034,87.4865,82.9344,277.1973,0,U,25994,999,90766,.26728E-4,.75E-6,0
