TERRA                   
1 25994U 99068A   17001.26926175  .00000089  00000+0  29716-4 0  9993
2 25994  98.2044  78.6931 0000854 116.7389 243.3879 14.57118706906364
TERRA                   
1 25994U 99068A   17001.74994660  .00000058  00000+0  22898-4 0  9990
2 25994  98.2041  79.1665 0000823 113.6189 246.5083 14.57118598906430
TERRA                   
1 25994U 99068A   17002.16196234  .00000156  00000+0  44674-4 0  9993
2 25994  98.2036  79.5721 0000801 112.6441 247.4872 14.57119173906499
TERRA                   
1 25994U 99068A   17002.29930017  .00000144  00000+0  41970-4 0  9995
2 25994  98.2035  79.7069 0000778 109.7954 250.3320 14.57119138906519
TERRA                   
1 25994U 99068A   17002.77998464  .00000174  00000+0  48647-4 0  9999
2 25994  98.2035  80.1801 0000794 109.8652 250.2632 14.57119427906586
TERRA                   
1 25994U 99068A   17003.12333121  .00000025  00000+0  15686-4 0  9994
2 25994  98.2039  80.5184 0000795 114.2349 245.8942 14.57118758906638
TERRA                   
1 25994U 99068A   17003.32933867  .00000110  00000+0  34468-4 0  9993
2 25994  98.2037  80.7209 0000758 112.7848 247.3447 14.57119239906667
TERRA                   
1 25994U 99068A   17003.74135344  .00000103  00000+0  32780-4 0  9990
2 25994  98.2039  81.1268 0000776 113.4051 246.7233 14.57119375906727
TERRA                   
1 25994U 99068A   17004.15336865  .00000047  00000+0  20419-4 0  9990
2 25994  98.2040  81.5325 0000801 115.7319 244.3970 14.57119274906784
TERRA                   
1 25994U 99068A   17004.29070687  .00000013  00000+0  12868-4 0  9994
2 25994  98.2040  81.6676 0000815 115.3892 244.7379 14.57119082906808
TERRA                   
1 25994U 99068A   17004.77139144  .00000159  00000+0  45213-4 0  9992
2 25994  98.2030  82.1402 0000753  96.2124 263.9157 14.57119774906878
TERRA                   
1 25994U 99068A   17005.18340656  .00000257  00000+0  67024-4 0  9993
2 25994  98.2030  82.5460 0000722 100.3061 259.8250 14.57120439906934
TERRA                   
1 25994U 99068A   17005.38941383  .00000198  00000+0  54034-4 0  9990
2 25994  98.2029  82.7491 0000745  94.8689 265.2597 14.57120218906969
TERRA                   
1 25994U 99068A   17005.80142862  .00000141  00000+0  41428-4 0  9993
2 25994  98.2031  83.1549 0000705  89.6916 270.4357 14.57120178907027
TERRA                   
1 25994U 99068A   17006.21344332  .00000162  00000+0  46021-4 0  9992
2 25994  98.2032  83.5606 0000728  86.2151 273.9128 14.57120543907081
TERRA                   
1 25994U 99068A   17006.28211251  .00000177  00000+0  49366-4 0  9993
2 25994  98.2030  83.6282 0000727  86.8606 273.2672 14.57120583907092
TERRA                   
1 25994U 99068A   17006.62545818  .00000193  00000+0  52952-4 0  9993
2 25994  98.2031  83.9664 0000735  89.7384 270.3906 14.57120832907145
TERRA                   
1 25994U 99068A   17006.83146538  .00000154  00000+0  44121-4 0  9998
2 25994  98.2035  84.1698 0000722  82.5297 277.5957 14.57120555907179
TERRA                   
1 25994U 99068A   17007.10614239  .00000154  00000+0  44124-4 0  9990
2 25994  98.2034  84.4399 0000766  79.6417 280.4859 14.57120635907216
TERRA                   
1 25994U 99068A   17007.24348079 -.00000055  00000+0 -21071-5 0  9990
2 25994  98.2025  84.5759 0000790  71.9355 288.1897 14.57119777907234
TERRA                   
1 25994U 99068A   17007.79283472 -.00000007  00000+0  84131-5 0  9997
2 25994  98.2026  85.1167 0000845  64.3448 295.7826 14.57119874907318
TERRA                   
1 25994U 99068A   17007.86150410  .00000031  00000+0  16816-4 0  9990
2 25994  98.2027  85.1842 0000858  66.2592 293.8705 14.57120094907326
TERRA                   
1 25994U 99068A   17008.20484900  .00000141  00000+0  41270-4 0  9997
2 25994  98.2028  85.5224 0000889  64.8807 295.2477 14.57120815907370
TERRA                   
1 25994U 99068A   17008.20484968  .00000140  00000+0  41098-4 0  9998
2 25994  98.2024  85.5224 0000862  67.0068 293.1257 14.57120852907375
TERRA                   
1 25994U 99068A   17008.68553290  .00000079  00000+0  27471-4 0  9995
2 25994  98.2023  85.9964 0000835  71.0777 289.0517 14.57120744907442
TERRA                   
1 25994U 99068A   17009.09754782  .00000002  00000+0  10387-4 0  9994
2 25994  98.2037  86.4030 0000867  68.6140 291.5128 14.57120210907509
TERRA                   
1 25994U 99068A   17009.23488636 -.00000028  00000+0  37960-5 0  9998
2 25994  98.2037  86.5385 0000916  65.0234 295.1050 14.57120189907524
TERRA                   
1 25994U 99068A   17009.23488653  .00000001  00000+0  10295-4 0  9998
2 25994  98.2026  86.5384 0000890  61.2944 298.8353 14.57120377907523
TERRA                   
1 25994U 99068A   17009.78423948 -.00000015  00000+0  67044-5 0  9995
2 25994  98.2032  87.0802 0000946  66.9304 293.1986 14.57120231907603
TERRA                   
1 25994U 99068A   17010.12758546  .00000057  00000+0  22782-4 0  9994
2 25994  98.2036  87.4185 0001030  80.5136 279.6210 14.57120710907651
TERRA                   
1 25994U 99068A   17010.19625378  .00000075  00000+0  26728-4 0  9991
2 25994  98.2034  87.4865 0001041  82.9344 277.1973 14.57120864907663
